IDEFIX & ARIANE 42P R/B 
1 27422U 02021B   26041.43665157  .00000336  00000+0  14431-3 0  9999
2 27422  98.5841 340.3735 0010641 268.4732  91.5232 14.31006322240126
AQUA                    
1 27424U 02022A   26041.59278531  .00001180  00000+0  24571-3 0  9999
2 27424  98.4125   8.4750 0001449  51.9079  69.7595 14.61908801264778
CZ-4B R/B               
1 27432U 02024C   26040.99268076  .00000044  00000+0  45155-4 0  9996
2 27432  98.8902  94.5307 0051148 101.5905 325.8929 14.14542502225324
MIDORI II (ADEOS-II)    
1 27597U 02056A   26041.50164413  .00000378  00000+0  16632-3 0  9998
2 27597  98.7720 359.8003 0002169  80.8482 279.2944 14.29264398206419
H-2A R/B                
1 27601U 02056E   26041.49953506  .00000358  00000+0  14028-3 0  9996
2 27601  98.3151   2.9086 0069083 242.2403 226.8286 14.33741405210215
CZ-4B R/B               
1 28059U 03049C   26041.56387638  .00000558  00000+0  13952-3 0  9999
2 28059  98.6850  35.4111 0047369 315.5824  44.1577 14.54990352182656
CZ-2C R/B               
1 28222U 04012C   26041.14096214  .00049343  00000+0  57539-3 0  9997
2 28222  97.7303 103.8856 0015793  55.3232 304.9510 15.61359870199975
SL-16 R/B               
1 28353U 04021B   26041.09124178  .00000172  00000+0  11444-3 0  9999
2 28353  70.9996 290.4132 0002993  78.7281 281.4178 14.14590483118932
CZ-4B R/B               
1 28415U 04035C   26041.54996595  .00008352  00000+0  29810-3 0  9997
2 28415  97.3548  76.1231 0034048  66.3716 294.1092 15.28558023175768
CZ-2C R/B               
1 28480U 04046B   26041.34948528  .00000150  00000+0  71538-4 0  9995
2 28480  98.1993 318.0316 0138346 235.4912 123.3143 14.26982564104601
ARIANE 5 R/B            
1 28499U 04049H   26041.41534272  .00001090  00000+0  12607-3 0  9998
2 28499  98.2584 208.8605 0085482  79.6995 281.3843 14.85210359141745
CZ-2D R/B               
1 28738U 05024B   26041.55647051  .00036871  00000+0  49609-3 0  9990
2 28738  97.3621  55.7595 0007533 111.9290 248.2768 15.57756503135555
